ONEWEB-0525             
1 54143U 22138AG  24083.14528136  .00000046  00000+0  83462-4 0  9996
2 54143  87.9102 107.4060 0001777  81.7207 278.4128 13.19727253 70066
ONEWEB-0526             
1 54144U 22138AH  24082.57191698  .00000053  00000+0  10122-3 0  9992
2 54144  87.9101 107.5171 0001782  90.3995 269.7342 13.19726746 69960
ONEWEB-0529             
1 54145U 22138AJ  24082.57507005 -.00000091  00000+0 -25848-3 0  9991
2 54145  87.9109 107.5249 0001672  81.1218 279.0104 13.19726206 69982
ONEWEB-0531             
1 54146U 22138AK  24082.95306900  .00000032  00000+0  46926-4 0  9999
2 54146  87.9137  76.8608 0002175 119.2565 240.8786 13.20769491 71562
ONEWEB-0535             
1 54147U 22138AL  24083.13896133  .00000065  00000+0  13110-3 0  9997
2 54147  87.9098 107.4028 0002180  99.2482 260.8897 13.19727094 70078
GSLV R/B                
1 54149U 22138AN  24082.90579780  .00005046  00000+0  51670-3 0  9996
2 54149  87.3813  45.8046 0022110 220.4131 139.5455 14.90138740 76935
ONEWEB-0527             
1 54642U 22166A   24082.93699053  .00000033  00000+0  48698-4 0  9992
2 54642  87.9265  46.4504 0001772  84.1044 276.0292 13.21827603 63708
